[
  { 
    "name" : "STARLINK-1502",
    "tle_line_1" : "1 45764C 20038AL  22119.14633279 -.00026776  00000-0 -17949-2 0  1195",
    "tle_line_2" : "2 45764  53.0561  68.7981 0001598  48.0734 280.3456 15.06407385    14" 
  },
  { 
    "name" : "STARLINK-1509",
    "tle_line_1" : "1 45766C 20038AN  22119.15570818 -.00012420  00000-0 -83236-3 0  1191",
    "tle_line_2" : "2 45766  53.0540  68.7494 0001785  43.4564  35.8326 15.06400783    14" 
  },
  { 
    "name" : "STARLINK-1511",
    "tle_line_1" : "1 45767C 20038AP  22119.14806589 -.00012481  00000-0 -83662-3 0  1198",
    "tle_line_2" : "2 45767  53.0549  68.7928 0001726  53.7550  24.0741 15.06395499    18" 
  },
  { 
    "name" : "STARLINK-1521",
    "tle_line_1" : "1 45768C 20038AQ  22119.15763973  .00002035  00000-0  13633-3 0  1192",
    "tle_line_2" : "2 45768  53.0526  68.7470 0001583  56.1514 173.5751 15.06395732    15" 
  },
  { 
    "name" : "STARLINK-1459",
    "tle_line_1" : "1 45769C 20038AR  22119.16116823 -.00009935  00000-0 -66563-3 0  1198",
    "tle_line_2" : "2 45769  53.0541  88.7365 0001766  46.4641  72.3882 15.06407855    15" 
  },
  { 
    "name" : "STARLINK-1462",
    "tle_line_1" : "1 45770C 20038AS  22119.16925425 -.00002553  00000-0 -17115-3 0  1194",
    "tle_line_2" : "2 45770  53.0562  48.6811 0001568  57.7819  90.1508 15.06383597    12" 
  },
  { 
    "name" : "STARLINK-1463",
    "tle_line_1" : "1 45771C 20038AT  22119.16266360 -.00017796  00000-0 -11927-2 0  1190",
    "tle_line_2" : "2 45771  53.0554  48.7309 0001491  64.1530  82.8818 15.06406038    12" 
  },
  { 
    "name" : "STARLINK-1470",
    "tle_line_1" : "1 45772C 20038AU  22119.15153848 -.00019546  00000-0 -13100-2 0  1196",
    "tle_line_2" : "2 45772  53.0536  48.7612 0001501  72.3291  74.3451 15.06406881    12" 
  },
  { 
    "name" : "STARLINK-1482",
    "tle_line_1" : "1 45773C 20038AV  22119.13332586 -.00010160  00000-0 -68097-3 0  1192",
    "tle_line_2" : "2 45773  53.0551  48.8575 0001538  65.0366  22.8192 15.06397019    13" 
  },
  { 
    "name" : "STARLINK-1485",
    "tle_line_1" : "1 45774C 20038AW  22119.14808527 -.00019702  00000-0 -13207-2 0  1190",
    "tle_line_2" : "2 45774  53.0566  48.7880 0001560  56.2024 271.7481 15.06399789    18" 
  },
  { 
    "name" : "STARLINK-1488",
    "tle_line_1" : "1 45775C 20038AX  22119.15188985 -.00025155  00000-0 -16865-2 0  1193",
    "tle_line_2" : "2 45775  53.0558  48.7725 0001386  72.2773 256.3255 15.06401338    15" 
  },
  { 
    "name" : "STARLINK-1489",
    "tle_line_1" : "1 45776C 20038AY  22119.15729688 -.00016708  00000-0 -11201-2 0  1198",
    "tle_line_2" : "2 45776  53.0567  48.7348 0001551  60.6204 257.3095 15.06395258    17" 
  },
  { 
    "name" : "STARLINK-1490",
    "tle_line_1" : "1 45777C 20038AZ  22119.15553454 -.00010061  00000-0 -67445-3 0  1193",
    "tle_line_2" : "2 45777  53.0559  48.7629 0001665  56.4183 271.8859 15.06389970    19" 
  },
  { 
    "name" : "STARLINK-1491",
    "tle_line_1" : "1 45778C 20038BA  22119.17105276 -.00012922  00000-0 -86619-3 0  1193",
    "tle_line_2" : "2 45778  53.0548  48.6780 0001320  77.1884  75.3743 15.06393547    15" 
  },
  { 
    "name" : "STARLINK-1492",
    "tle_line_1" : "1 45779C 20038BB  22119.16702333 -.00020707  00000-0 -13884-2 0  1193",
    "tle_line_2" : "2 45779  53.0557  48.6912 0001743  54.2756  96.4603 15.06391331    14" 
  },
  { 
    "name" : "STARLINK-1496",
    "tle_line_1" : "1 45780C 20038BC  22119.16803666 -.00011080  00000-0 -74269-3 0  1195",
    "tle_line_2" : "2 45780  53.0558  48.7091 0001526  55.7174  40.4928 15.06393365    13" 
  },
  { 
    "name" : "STARLINK-1497",
    "tle_line_1" : "1 45781C 20038BD  22119.12568803 -.00014385  00000-0 -96399-3 0  1192",
    "tle_line_2" : "2 45781  53.0548  48.8916 0001654  54.1351  32.2617 15.06405436    19" 
  },
  { 
    "name" : "STARLINK-1498",
    "tle_line_1" : "1 45782C 20038BE  22119.16128775 -.00006951  00000-0 -46595-3 0  1190",
    "tle_line_2" : "2 45782  53.0558  48.7359 0001666  55.1380 264.4412 15.06385700    10" 
  },
  { 
    "name" : "STARLINK-1505",
    "tle_line_1" : "1 45783C 20038BF  22119.12185624 -.00018975  00000-0 -12717-2 0  1190",
    "tle_line_2" : "2 45783  53.0567  48.9075 0001438  70.2028  15.3998 15.06408319    16" 
  },
  { 
    "name" : "STARLINK-1510",
    "tle_line_1" : "1 45784C 20038BG  22119.14078958 -.00029009  00000-0 -19446-2 0  1190",
    "tle_line_2" : "2 45784  53.0539  48.8188 0001604  61.1676 267.1840 15.06410155    17" 
  },
  { 
    "name" : "STARLINK-1512",
    "tle_line_1" : "1 45785C 20038BH  22119.15519433  .00000023  00000-0  15288-5 0  1196",
    "tle_line_2" : "2 45785  53.0560  48.7443 0001719  52.4959  93.9550 15.06383323    18" 
  },
  { 
    "name" : "STARLINK-1513",
    "tle_line_1" : "1 45786C 20038BJ  22119.12949443 -.00008160  00000-0 -54703-3 0  1197",
    "tle_line_2" : "2 45786  53.0560  48.8742 0001555  57.2266  29.8378 15.06386477    13" 
  },
  { 
    "name" : "STARLINK-1517",
    "tle_line_1" : "1 45787C 20038BK  22119.14790925 -.00015320  00000-0 -10267-2 0  1191",
    "tle_line_2" : "2 45787  53.0551  48.7937 0001465  59.1543  87.8111 15.06405010    12" 
  },
  { 
    "name" : "STARLINK-1522",
    "tle_line_1" : "1 46027C 20055A   22119.13454061 -.00001130  00000-0 -75720-4 0  1196",
    "tle_line_2" : "2 46027  53.0540 338.8385 0001524  69.9155 149.5146 15.06384555    16" 
  },
  { 
    "name" : "STARLINK-1523",
    "tle_line_1" : "1 46028C 20055B   22119.15051706 -.00001505  00000-0 -10089-3 0  1190",
    "tle_line_2" : "2 46028  53.0541 338.7656 0001528  81.2955 144.8268 15.06382155    14" 
  },
  { 
    "name" : "STARLINK-1526",
    "tle_line_1" : "1 46029C 20055C   22119.14271100 -.00011537  00000-0 -77315-3 0  1193",
    "tle_line_2" : "2 46029  53.0536 338.8138 0001420  76.4984 147.2553 15.06401102    12" 
  },
  { 
    "name" : "STARLINK-1534",
    "tle_line_1" : "1 46030C 20055D   22119.09148460 -.00009658  00000-0 -64734-3 0  1193",
    "tle_line_2" : "2 46030  53.0554 339.0368 0001380 101.3251 104.4676 15.06395956    12" 
  },
  { 
    "name" : "STARLINK-1544",
    "tle_line_1" : "1 46031C 20055E   22119.09564627  .00000942  00000-0  63159-4 0  1197",
    "tle_line_2" : "2 46031  53.0541 339.0206 0001495  73.9913 134.4087 15.06380212    14" 
  },
  { 
    "name" : "STARLINK-1555",
    "tle_line_1" : "1 46032C 20055F   22119.12689764 -.00006013  00000-0 -40306-3 0  1197",
    "tle_line_2" : "2 46032  53.0562 338.8784 0001611  54.5514 163.4018 15.06389015    14" 
  },
  { 
    "name" : "STARLINK-1556",
    "tle_line_1" : "1 46033C 20055G   22119.10781385 -.00006541  00000-0 -43844-3 0  1194",
    "tle_line_2" : "2 46033  53.0547 338.9741 0001555  70.7174 143.6902 15.06392525    13" 
  },
  { 
    "name" : "STARLINK-1557",
    "tle_line_1" : "1 46034C 20055H   22119.11144946 -.00007520  00000-0 -50400-3 0  1196",
    "tle_line_2" : "2 46034  53.0526 338.9642 0001580  70.0447 144.0952 15.06394323    13" 
  },
  { 
    "name" : "STARLINK-1558",
    "tle_line_1" : "1 46035C 20055J   22119.11893499 -.00004003  00000-0 -26822-3 0  1195",
    "tle_line_2" : "2 46035  53.0540 338.9068 0001636  73.2198 141.5080 15.06397863    18" 
  },
  { 
    "name" : "STARLINK-1560",
    "tle_line_1" : "1 46036C 20055K   22119.10398976 -.00009376  00000-0 -62839-3 0  1191",
    "tle_line_2" : "2 46036  53.0554 338.9805 0001585  77.0091 136.6312 15.06397846    14" 
  },
  { 
    "name" : "STARLINK-1565",
    "tle_line_1" : "1 46037C 20055L   22119.10034204 -.00005703  00000-0 -38230-3 0  1191",
    "tle_line_2" : "2 46037  53.0534 339.0176 0001483  76.1090 137.7741 15.06387555    16" 
  },
  { 
    "name" : "STARLINK-1567",
    "tle_line_1" : "1 46038C 20055M   22119.11526287 -.00000064  00000-0 -42905-5 0  1191",
    "tle_line_2" : "2 46038  53.0526 338.9463 0001502  78.7474 136.0691 15.06389498    15" 
  },
  { 
    "name" : "STARLINK-1569",
    "tle_line_1" : "1 46039C 20055N   22119.12276544 -.00009134  00000-0 -61218-3 0  1194",
    "tle_line_2" : "2 46039  53.0529 338.9118 0001441  73.5212 142.0048 15.06398088    19" 
  },
  { 
    "name" : "STARLINK-1576",
    "tle_line_1" : "1 46040C 20055P   22119.15433107 -.00007200  00000-0 -48251-3 0  1193",
    "tle_line_2" : "2 46040  53.0532 338.7617 0001303  74.3885 152.4039 15.06396811    16" 
  },
  { 
    "name" : "STARLINK-1580",
    "tle_line_1" : "1 46041C 20055Q   22119.15730470 -.00000118  00000-0 -79131-5 0  1191",
    "tle_line_2" : "2 46041  53.0532 338.7500 0001525  75.0904 152.9737 15.06386319    16" 
  },
  { 
    "name" : "STARLINK-1581",
    "tle_line_1" : "1 46042C 20055R   22119.13853135 -.00002382  00000-0 -15962-3 0  1199",
    "tle_line_2" : "2 46042  53.0536 338.8308 0001325  66.5011 154.5484 15.06397911    17" 
  },
  { 
    "name" : "STARLINK-1582",
    "tle_line_1" : "1 46043C 20055S   22119.13072264 -.00000628  00000-0 -42086-4 0  1195",
    "tle_line_2" : "2 46043  53.0536 338.8799 0001423  72.9322 145.7748 15.06385910    18" 
  },
  { 
    "name" : "STARLINK-1584",
    "tle_line_1" : "1 46044C 20055T   22119.14669251 -.00000025  00000-0 -16494-5 0  1191",
    "tle_line_2" : "2 46044  53.0550 338.7920 0001334  90.6412 134.7103 15.06388734    18" 
  },
  { 
    "name" : "STARLINK-1591",
    "tle_line_1" : "1 46045C 20055U   22119.15833587 -.00002094  00000-0 -14036-3 0  1194",
    "tle_line_2" : "2 46045  53.0541 338.7397 0001503  69.7514 158.7905 15.06384126    12" 
  },
  { 
    "name" : "STARLINK-1514",
    "tle_line_1" : "1 46046C 20055V   22118.98476899  .00144994  00000-0  11331-2 0  1181",
    "tle_line_2" : "2 46046  53.0505 249.6734 0004774 343.4169 166.2238 15.70807829    13" 
  },
  { 
    "name" : "STARLINK-1524",
    "tle_line_1" : "1 46047C 20055W   22119.10989017 -.00010147  00000-0 -68004-3 0  1193",
    "tle_line_2" : "2 46047  53.0532 328.9613 0001443  81.6199 139.0375 15.06398927    18" 
  }
]